start=new Date('2023-05-29T00:00:00.000Z').valueOf();
sats=[{"RA_OF_ASC_NODE":"194.5750","OBJECT_TYPE":"PAYLOAD","NORAD_CAT_ID":"54103","REF_FRAME":"TEME","OBJECT_NAME":"STARLINK-5200","SEMIMAJOR_AXIS":"6917.886","COUNTRY_CODE":"US","CENTER_NAME":"EARTH","SITE":"AFETR","DECAY_DATE":null,"FILE":"3919528","EPOCH":"2023-05-28T20:01:36.952608","INCLINATION":"53.2154","TLE_LINE2":"2 54103  53.2154 194.5750 0000968  91.8328 268.2775 15.08838310 34371","MEAN_MOTION":"15.08838310","OBJECT_ID":"2022-136BE","EPHEMERIS_TYPE":"0","ECCENTRICITY":"0.00009680","TIME_SYSTEM":"UTC","MEAN_ANOMALY":"268.2775","ELEMENT_SET_NO":"999","ARG_OF_PERICENTER":"91.8328","PERIAPSIS":"539.081","LAUNCH_DATE":"2022-10-20","APOAPSIS":"540.420","TLE_LINE1":"1 54103U 22136BE  23148.83445547  .00000329  00000-0  38753-4 0  9999","MEAN_MOTION_DOT":"0.00000329","BSTAR":"0.00003875300000","MEAN_ELEMENT_THEORY":"SGP4","GP_ID":"232684405","REV_AT_EPOCH":"3437","RCS_SIZE":"LARGE","CLASSIFICATION_TYPE":"U","PERIOD":"95.438","MEAN_MOTION_DDOT":"0.0000000000000"},{"DECAY_DATE":null,"FILE":"3919528","SITE":"AFETR","EPOCH":"2023-05-28T19:29:07.213920","INCLINATION":"53.2171","REF_FRAME":"TEME","OBJECT_TYPE":"PAYLOAD","RA_OF_ASC_NODE":"179.4483","NORAD_CAT_ID":"54104","SEMIMAJOR_AXIS":"6917.876","OBJECT_NAME":"STARLINK-5203","COUNTRY_CODE":"US","CENTER_NAME":"EARTH","MEAN_ANOMALY":"274.4701","ELEMENT_SET_NO":"999","ARG_OF_PERICENTER":"85.6406","ECCENTRICITY":"0.00010080","TLE_LINE2":"2 54104  53.2171 179.4483 0001008  85.6406 274.4701 15.08841460 34581","MEAN_MOTION":"15.08841460","OBJECT_ID":"2022-136BF","EPHEMERIS_TYPE":"0","TIME_SYSTEM":"UTC","MEAN_MOTION_DOT":"0.00000513","LAUNCH_DATE":"2022-10-20","PERIAPSIS":"539.044","TLE_LINE1":"1 54104U 22136BF  23148.81188905  .00000513  00000-0  50320-4 0  9999","APOAPSIS":"540.438","RCS_SIZE":"LARGE","CLASSIFICATION_TYPE":"U","PERIOD":"95.437","MEAN_MOTION_DDOT":"0.0000000000000","BSTAR":"0.00005032000000","REV_AT_EPOCH":"3458","GP_ID":"232683904","MEAN_ELEMENT_THEORY":"SGP4"},{"ARG_OF_PERICENTER":"68.3112","ELEMENT_SET_NO":"999","MEAN_ANOMALY":"291.7940","TIME_SYSTEM":"UTC","ECCENTRICITY":"0.00005650","EPHEMERIS_TYPE":"0","OBJECT_ID":"2022-141A","TLE_LINE2":"2 54157  53.2163 255.5144 0000565  68.3112 291.7940 15.08847720 32321","MEAN_MOTION":"15.08847720","INCLINATION":"53.2163","EPOCH":"2023-05-28T14:44:55.251168","FILE":"3919546","DECAY_DATE":null,"SITE":"AFWTR","COUNTRY_CODE":"US","CENTER_NAME":"EARTH","OBJECT_NAME":"STARLINK-5290","SEMIMAJOR_AXIS":"6917.857","REF_FRAME":"TEME","NORAD_CAT_ID":"54157","OBJECT_TYPE":"PAYLOAD","RA_OF_ASC_NODE":"255.5144","MEAN_MOTION_DDOT":"0.0000000000000","PERIOD":"95.437","CLASSIFICATION_TYPE":"U","RCS_SIZE":"LARGE","REV_AT_EPOCH":"3232","GP_ID":"232709578","MEAN_ELEMENT_THEORY":"SGP4","BSTAR":"0.00012516000000","MEAN_MOTION_DOT":"0.00001705","TLE_LINE1":"1 54157U 22141A   23148.61452837  .00001705  00000-0  12516-3 0  9997","APOAPSIS":"540.113","PERIAPSIS":"539.331","LAUNCH_DATE":"2022-10-28"},{"PERIOD":"95.437","MEAN_MOTION_DDOT":"0.0000000000000","RCS_SIZE":"LARGE","CLASSIFICATION_TYPE":"U","REV_AT_EPOCH":"3233","GP_ID":"232709328","MEAN_ELEMENT_THEORY":"SGP4","BSTAR":"0.00014004000000","MEAN_MOTION_DOT":"0.00001942","TLE_LINE1":"1 54158U 22141B   23148.68813699  .00001942  00000-0  14004-3 0  9999","APOAPSIS":"540.380","PERIAPSIS":"539.045","LAUNCH_DATE":"2022-10-28","ARG_OF_PERICENTER":"88.6525","MEAN_ANOMALY":"271.4578","ELEMENT_SET_NO":"999","TIME_SYSTEM":"UTC","ECCENTRICITY":"0.00009650","TLE_LINE2":"2 54158  53.2161 255.2629 0000965  88.6525 271.4578 15.08850753 32335","MEAN_MOTION":"15.08850753","OBJECT_ID":"2022-141B","EPHEMERIS_TYPE":"0","INCLINATION":"53.2161","EPOCH":"2023-05-28T16:30:55.035936","FILE":"3919546","DECAY_DATE":null,"SITE":"AFWTR","SEMIMAJOR_AXIS":"6917.848","OBJECT_NAME":"STARLINK-5297","CENTER_NAME":"EARTH","COUNTRY_CODE":"US","REF_FRAME":"TEME","RA_OF_ASC_NODE":"255.2629","OBJECT_TYPE":"PAYLOAD","NORAD_CAT_ID":"54158"},{"OBJECT_ID":"2022-141C","EPHEMERIS_TYPE":"0","TLE_LINE2":"2 54159  53.2152 255.2492 0000810 112.0604 248.0474 15.08859431 32330","MEAN_MOTION":"15.08859431","ECCENTRICITY":"0.00008100","TIME_SYSTEM":"UTC","ELEMENT_SET_NO":"999","MEAN_ANOMALY":"248.0474","ARG_OF_PERICENTER":"112.0604","NORAD_CAT_ID":"54159","OBJECT_TYPE":"PAYLOAD","RA_OF_ASC_NODE":"255.2492","REF_FRAME":"TEME","CENTER_NAME":"EARTH","COUNTRY_CODE":"US","SEMIMAJOR_AXIS":"6917.821","OBJECT_NAME":"STARLINK-5294","SITE":"AFWTR","DECAY_DATE":null,"FILE":"3919546","INCLINATION":"53.2152","EPOCH":"2023-05-28T16:25:36.414336","BSTAR":"0.00024633000000","MEAN_ELEMENT_THEORY":"SGP4","GP_ID":"232710580","REV_AT_EPOCH":"3233","CLASSIFICATION_TYPE":"U","RCS_SIZE":"LARGE","MEAN_MOTION_DDOT":"0.0000000000000","PERIOD":"95.436","PERIAPSIS":"539.126","LAUNCH_DATE":"2022-10-28","APOAPSIS":"540.246","TLE_LINE1":"1 54159U 22141C   23148.68444924  .00003637  00000-0  24633-3 0  9993","MEAN_MOTION_DOT":"0.00003637"},{"SITE":"AFWTR","DECAY_DATE":null,"FILE":"3919546","INCLINATION":"53.2173","EPOCH":"2023-05-28T20:43:16.363776","RA_OF_ASC_NODE":"209.3110","OBJECT_TYPE":"PAYLOAD","NORAD_CAT_ID":"54160","REF_FRAME":"TEME","OBJECT_NAME":"STARLINK-5233","SEMIMAJOR_AXIS":"6917.892","CENTER_NAME":"EARTH","COUNTRY_CODE":"US","MEAN_ANOMALY":"278.3791","ELEMENT_SET_NO":"999","ARG_OF_PERICENTER":"81.7321","TLE_LINE2":"2 54160  53.2173 209.3110 0001057  81.7321 278.3791 15.08836064 32991","MEAN_MOTION":"15.08836064","EPHEMERIS_TYPE":"0","OBJECT_ID":"2022-141D","ECCENTRICITY":"0.00010570","TIME_SYSTEM":"UTC","MEAN_MOTION_DOT":"-0.00000370","LAUNCH_DATE":"2022-10-28","PERIAPSIS":"539.026","APOAPSIS":"540.489","TLE_LINE1":"1 54160U 22141D   23148.86338384 -.00000370  00000-0 -51440-5 0  9998","RCS_SIZE":"LARGE","CLASSIFICATION_TYPE":"U","PERIOD":"95.438","MEAN_MOTION_DDOT":"0.0000000000000","BSTAR":"-0.00000514400000","MEAN_ELEMENT_THEORY":"SGP4","REV_AT_EPOCH":"3299","GP_ID":"232710330"},{"MEAN_MOTION_DOT":"0.00001176","APOAPSIS":"540.607","TLE_LINE1":"1 54161U 22141E   23148.61917224  .00001176  00000-0  91947-4 0  9996","LAUNCH_DATE":"2022-10-28","PERIAPSIS":"538.839","MEAN_MOTION_DDOT":"0.0000000000000","PERIOD":"95.437","CLASSIFICATION_TYPE":"U","RCS_SIZE":"LARGE","MEAN_ELEMENT_THEORY":"SGP4","GP_ID":"232709078","REV_AT_EPOCH":"3232","BSTAR":"0.00009194700000","INCLINATION":"53.2164","EPOCH":"2023-05-28T14:51:36.481536","SITE":"AFWTR","FILE":"3919546","DECAY_DATE":null,"COUNTRY_CODE":"US","CENTER_NAME":"EARTH","SEMIMAJOR_AXIS":"6917.858","OBJECT_NAME":"STARLINK-5269","NORAD_CAT_ID":"54161","OBJECT_TYPE":"PAYLOAD","RA_OF_ASC_NODE":"255.5413","REF_FRAME":"TEME","ARG_OF_PERICENTER":"90.1152","ELEMENT_SET_NO":"999","MEAN_ANOMALY":"269.9986","TIME_SYSTEM":"UTC","EPHEMERIS_TYPE":"0","OBJECT_ID":"2022-141E","MEAN_MOTION":"15.08847298","TLE_LINE2":"2 54161  53.2164 255.5413 0001278  90.1152 269.9986 15.08847298 32322","ECCENTRICITY":"0.00012780"},{"TLE_LINE1":"1 54162U 22141F   23148.61084339  .00002156  00000-0  15349-3 0  9999","APOAPSIS":"540.343","PERIAPSIS":"539.092","LAUNCH_DATE":"2022-10-28","MEAN_MOTION_DOT":"0.00002156","REV_AT_EPOCH":"3232","GP_ID":"232709829","MEAN_ELEMENT_THEORY":"SGP4","BSTAR":"0.00015349000000","MEAN_MOTION_DDOT":"0.0000000000000","PERIOD":"95.437","CLASSIFICATION_TYPE":"U","RCS_SIZE":"LARGE","CENTER_NAME":"EARTH","COUNTRY_CODE":"US","OBJECT_NAME":"STARLINK-5273","SEMIMAJOR_AXIS":"6917.853","REF_FRAME":"TEME","NORAD_CAT_ID":"54162","RA_OF_ASC_NODE":"255.4909","OBJECT_TYPE":"PAYLOAD","EPOCH":"2023-05-28T14:39:36.868896","INCLINATION":"53.2162","FILE":"3919546","DECAY_DATE":null,"SITE":"AFWTR","TIME_SYSTEM":"UTC","ECCENTRICITY":"0.00009040","EPHEMERIS_TYPE":"0","OBJECT_ID":"2022-141F","MEAN_MOTION":"15.08849065","TLE_LINE2":"2 54162  53.2162 255.4909 0000904 101.3404 258.7690 15.08849065 32322","ARG_OF_PERICENTER":"101.3404","ELEMENT_SET_NO":"999","MEAN_ANOMALY":"258.7690"},{"MEAN_MOTION_DOT":"0.00003559","TLE_LINE1":"1 54163U 22141G   23148.55658462  .00003559  00000-0  24152-3 0  9997","APOAPSIS":"540.244","PERIAPSIS":"539.191","LAUNCH_DATE":"2022-10-28","MEAN_MOTION_DDOT":"0.0000000000000","PERIOD":"95.437","CLASSIFICATION_TYPE":"U","RCS_SIZE":"LARGE","GP_ID":"232710080","REV_AT_EPOCH":"3245","MEAN_ELEMENT_THEORY":"SGP4","BSTAR":"0.00024152000000","EPOCH":"2023-05-28T13:21:28.911168","INCLINATION":"53.2161","DECAY_DATE":null,"FILE":"3919546","SITE":"AFWTR","COUNTRY_CODE":"US","CENTER_NAME":"EARTH","SEMIMAJOR_AXIS":"6917.853","OBJECT_NAME":"STARLINK-5161","REF_FRAME":"TEME","NORAD_CAT_ID":"54163","RA_OF_ASC_NODE":"245.8891","OBJECT_TYPE":"PAYLOAD","ARG_OF_PERICENTER":"81.8427","ELEMENT_SET_NO":"999","MEAN_ANOMALY":"278.2651","TIME_SYSTEM":"UTC","ECCENTRICITY":"0.00007610","OBJECT_ID":"2022-141G","EPHEMERIS_TYPE":"0","TLE_LINE2":"2 54163  53.2161 245.8891 0000761  81.8427 278.2651 15.08849063 32459","MEAN_MOTION":"15.08849063"},{"LAUNCH_DATE":"2022-10-28","PERIAPSIS":"539.147","TLE_LINE1":"1 54164U 22141H   23148.56026739  .00000594  00000-0  55368-4 0  9995","APOAPSIS":"540.318","MEAN_MOTION_DOT":"0.00000594","BSTAR":"0.00005536800000","GP_ID":"232710831","REV_AT_EPOCH":"3245","MEAN_ELEMENT_THEORY":"SGP4","CLASSIFICATION_TYPE":"U","RCS_SIZE":"LARGE","MEAN_MOTION_DDOT":"0.0000000000000","PERIOD":"95.437","REF_FRAME":"TEME","NORAD_CAT_ID":"54164","RA_OF_ASC_NODE":"245.9127","OBJECT_TYPE":"PAYLOAD","COUNTRY_CODE":"US","CENTER_NAME":"EARTH","SEMIMAJOR_AXIS":"6917.867","OBJECT_NAME":"STARLINK-5278","DECAY_DATE":null,"FILE":"3919546","SITE":"AFWTR","INCLINATION":"53.2166","EPOCH":"2023-05-28T13:26:47.102496","ECCENTRICITY":"0.00008460","EPHEMERIS_TYPE":"0","OBJECT_ID":"2022-141H","TLE_LINE2":"2 54164  53.2166 245.9127 0000846  87.6609 272.4480 15.08844237 32452","MEAN_MOTION":"15.08844237","TIME_SYSTEM":"UTC","ELEMENT_SET_NO":"999","MEAN_ANOMALY":"272.4480","ARG_OF_PERICENTER":"87.6609"}];
